CCSDS_OMM_VERS = 2.0
CREATION_DATE  = 
ORIGINATOR     = 

OBJECT_NAME    = STARLINK-35443
OBJECT_ID      = 2025-253W
CENTER_NAME    = EARTH
REF_FRAME      = TEME
TIME_SYSTEM    = UTC
MEAN_ELEMENT_THEORY = SGP/SGP4

EPOCH          = 2025-12-02T20:00:03.000384
MEAN_MOTION    = 15.45597965
ECCENTRICITY   = .0001476
INCLINATION    = 43.0004
RA_OF_ASC_NODE = 42.5872
ARG_OF_PERICENTER = 287.8045
MEAN_ANOMALY   = 153.7556

EPHEMERIS_TYPE = 0
CLASSIFICATION_TYPE = U
NORAD_CAT_ID   = 66339
ELEMENT_SET_NO = 999
REV_AT_EPOCH   = 538
BSTAR          = -.47182E-1
MEAN_MOTION_DOT = -.2065814E-1
MEAN_MOTION_DDOT = 0

CCSDS_OMM_VERS = 2.0
CREATION_DATE  = 
ORIGINATOR     = 

OBJECT_NAME    = STARLINK-35218
OBJECT_ID      = 2025-253X
CENTER_NAME    = EARTH
REF_FRAME      = TEME
TIME_SYSTEM    = UTC
MEAN_ELEMENT_THEORY = SGP/SGP4

EPOCH          = 2025-12-02T05:44:37.704192
MEAN_MOTION    = 15.50658934
ECCENTRICITY   = .0001723
INCLINATION    = 43.0002
RA_OF_ASC_NODE = 46.0659
ARG_OF_PERICENTER = 259.1035
MEAN_ANOMALY   = 100.9632

EPHEMERIS_TYPE = 0
CLASSIFICATION_TYPE = U
NORAD_CAT_ID   = 66340
ELEMENT_SET_NO = 999
REV_AT_EPOCH   = 530
BSTAR          = .21881E-2
MEAN_MOTION_DOT = .130561E-2
MEAN_MOTION_DDOT = 0

CCSDS_OMM_VERS = 2.0
CREATION_DATE  = 
ORIGINATOR     = 

OBJECT_NAME    = STARLINK-35522
OBJECT_ID      = 2025-253Y
CENTER_NAME    = EARTH
REF_FRAME      = TEME
TIME_SYSTEM    = UTC
MEAN_ELEMENT_THEORY = SGP/SGP4

EPOCH          = 2025-12-02T05:46:36.245856
MEAN_MOTION    = 15.50639914
ECCENTRICITY   = .0001588
INCLINATION    = 43.0002
RA_OF_ASC_NODE = 46.0790
ARG_OF_PERICENTER = 262.4563
MEAN_ANOMALY   = 97.6117

EPHEMERIS_TYPE = 0
CLASSIFICATION_TYPE = U
NORAD_CAT_ID   = 66341
ELEMENT_SET_NO = 999
REV_AT_EPOCH   = 530
BSTAR          = .14366E-2
MEAN_MOTION_DOT = .85041E-3
MEAN_MOTION_DDOT = 0

CCSDS_OMM_VERS = 2.0
CREATION_DATE  = 
ORIGINATOR     = 

OBJECT_NAME    = STARLINK-35535
OBJECT_ID      = 2025-253Z
CENTER_NAME    = EARTH
REF_FRAME      = TEME
TIME_SYSTEM    = UTC
MEAN_ELEMENT_THEORY = SGP/SGP4

EPOCH          = 2025-12-02T20:00:03.000384
MEAN_MOTION    = 15.40663767
ECCENTRICITY   = .0001483
INCLINATION    = 43.0006
RA_OF_ASC_NODE = 42.6849
ARG_OF_PERICENTER = 280.6357
MEAN_ANOMALY   = 120.7303

EPHEMERIS_TYPE = 0
CLASSIFICATION_TYPE = U
NORAD_CAT_ID   = 66342
ELEMENT_SET_NO = 999
REV_AT_EPOCH   = 533
BSTAR          = .61374E-3
MEAN_MOTION_DOT = .25388E-3
MEAN_MOTION_DDOT = 0

CCSDS_OMM_VERS = 2.0
CREATION_DATE  = 
ORIGINATOR     = 

OBJECT_NAME    = STARLINK-35467
OBJECT_ID      = 2025-253AA
CENTER_NAME    = EARTH
REF_FRAME      = TEME
TIME_SYSTEM    = UTC
MEAN_ELEMENT_THEORY = SGP/SGP4

EPOCH          = 2025-12-02T20:00:03.000384
MEAN_MOTION    = 15.40672905
ECCENTRICITY   = .0001196
INCLINATION    = 43.0008
RA_OF_ASC_NODE = 42.7751
ARG_OF_PERICENTER = 264.2131
MEAN_ANOMALY   = 99.8075

EPHEMERIS_TYPE = 0
CLASSIFICATION_TYPE = U
NORAD_CAT_ID   = 66343
ELEMENT_SET_NO = 999
REV_AT_EPOCH   = 533
BSTAR          = .51619E-3
MEAN_MOTION_DOT = .213E-3
MEAN_MOTION_DDOT = 0

CCSDS_OMM_VERS = 2.0
CREATION_DATE  = 
ORIGINATOR     = 

OBJECT_NAME    = STARLINK-35511
OBJECT_ID      = 2025-253AB
CENTER_NAME    = EARTH
REF_FRAME      = TEME
TIME_SYSTEM    = UTC
MEAN_ELEMENT_THEORY = SGP/SGP4

EPOCH          = 2025-12-02T11:51:12.786336
MEAN_MOTION    = 15.50673828
ECCENTRICITY   = .0001213
INCLINATION    = 43.0006
RA_OF_ASC_NODE = 44.5324
ARG_OF_PERICENTER = 250.7153
MEAN_ANOMALY   = 109.3576

EPHEMERIS_TYPE = 0
CLASSIFICATION_TYPE = U
NORAD_CAT_ID   = 66344
ELEMENT_SET_NO = 999
REV_AT_EPOCH   = 534
BSTAR          = .18155E-2
MEAN_MOTION_DOT = .108013E-2
MEAN_MOTION_DDOT = 0

CCSDS_OMM_VERS = 2.0
CREATION_DATE  = 
ORIGINATOR     = 

OBJECT_NAME    = STARLINK-35440
OBJECT_ID      = 2025-253AC
CENTER_NAME    = EARTH
REF_FRAME      = TEME
TIME_SYSTEM    = UTC
MEAN_ELEMENT_THEORY = SGP/SGP4

EPOCH          = 2025-12-02T13:24:57.373632
MEAN_MOTION    = 15.50624658
ECCENTRICITY   = .0002377
INCLINATION    = 43.0000
RA_OF_ASC_NODE = 44.1598
ARG_OF_PERICENTER = 275.8194
MEAN_ANOMALY   = 84.2395

EPHEMERIS_TYPE = 0
CLASSIFICATION_TYPE = U
NORAD_CAT_ID   = 66345
ELEMENT_SET_NO = 999
REV_AT_EPOCH   = 535
BSTAR          = .28551E-2
MEAN_MOTION_DOT = .171149E-2
MEAN_MOTION_DDOT = 0

CCSDS_OMM_VERS = 2.0
CREATION_DATE  = 
ORIGINATOR     = 

OBJECT_NAME    = STARLINK-35482
OBJECT_ID      = 2025-253AD
CENTER_NAME    = EARTH
REF_FRAME      = TEME
TIME_SYSTEM    = UTC
MEAN_ELEMENT_THEORY = SGP/SGP4

EPOCH          = 2025-12-02T13:24:28.018368
MEAN_MOTION    = 15.50598874
ECCENTRICITY   = .0001487
INCLINATION    = 43.0008
RA_OF_ASC_NODE = 44.1578
ARG_OF_PERICENTER = 277.7490
MEAN_ANOMALY   = 82.3202

EPHEMERIS_TYPE = 0
CLASSIFICATION_TYPE = U
NORAD_CAT_ID   = 66346
ELEMENT_SET_NO = 999
REV_AT_EPOCH   = 535
BSTAR          = .16987E-2
MEAN_MOTION_DOT = .100677E-2
MEAN_MOTION_DDOT = 0

CCSDS_OMM_VERS = 2.0
CREATION_DATE  = 
ORIGINATOR     = 

OBJECT_NAME    = STARLINK-35438
OBJECT_ID      = 2025-253AE
CENTER_NAME    = EARTH
REF_FRAME      = TEME
TIME_SYSTEM    = UTC
MEAN_ELEMENT_THEORY = SGP/SGP4

EPOCH          = 2025-12-02T11:50:43.166688
MEAN_MOTION    = 15.50748022
ECCENTRICITY   = .0005169
INCLINATION    = 43.0001
RA_OF_ASC_NODE = 44.5284
ARG_OF_PERICENTER = 271.7306
MEAN_ANOMALY   = 88.2962

EPHEMERIS_TYPE = 0
CLASSIFICATION_TYPE = U
NORAD_CAT_ID   = 66347
ELEMENT_SET_NO = 999
REV_AT_EPOCH   = 534
BSTAR          = .2323E-2
MEAN_MOTION_DOT = .139273E-2
MEAN_MOTION_DDOT = 0

CCSDS_OMM_VERS = 2.0
CREATION_DATE  = 
ORIGINATOR     = 

OBJECT_NAME    = STARLINK-35849
OBJECT_ID      = 2025-254A
CENTER_NAME    = EARTH
REF_FRAME      = TEME
TIME_SYSTEM    = UTC
MEAN_ELEMENT_THEORY = SGP/SGP4

EPOCH          = 2025-12-02T20:00:03.000384
MEAN_MOTION    = 15.66013771
ECCENTRICITY   = .0001211
INCLINATION    = 53.1594
RA_OF_ASC_NODE = 324.1966
ARG_OF_PERICENTER = 105.3455
MEAN_ANOMALY   = 144.7903

EPHEMERIS_TYPE = 0
CLASSIFICATION_TYPE = U
NORAD_CAT_ID   = 66348
ELEMENT_SET_NO = 999
REV_AT_EPOCH   = 533
BSTAR          = -.21956E-1
MEAN_MOTION_DOT = -.2012148E-1
MEAN_MOTION_DDOT = 0

CCSDS_OMM_VERS = 2.0
CREATION_DATE  = 
ORIGINATOR     = 

OBJECT_NAME    = STARLINK-35848
OBJECT_ID      = 2025-254B
CENTER_NAME    = EARTH
REF_FRAME      = TEME
TIME_SYSTEM    = UTC
MEAN_ELEMENT_THEORY = SGP/SGP4

EPOCH          = 2025-12-02T20:00:03.000384
MEAN_MOTION    = 15.66012330
ECCENTRICITY   = .0001205
INCLINATION    = 53.1593
RA_OF_ASC_NODE = 324.1921
ARG_OF_PERICENTER = 105.1960
MEAN_ANOMALY   = 146.8559

EPHEMERIS_TYPE = 0
CLASSIFICATION_TYPE = U
NORAD_CAT_ID   = 66349
ELEMENT_SET_NO = 999
REV_AT_EPOCH   = 533
BSTAR          = -.21916E-1
MEAN_MOTION_DOT = -.2008861E-1
MEAN_MOTION_DDOT = 0

CCSDS_OMM_VERS = 2.0
CREATION_DATE  = 
ORIGINATOR     = 

OBJECT_NAME    = STARLINK-35829
OBJECT_ID      = 2025-254C
CENTER_NAME    = EARTH
REF_FRAME      = TEME
TIME_SYSTEM    = UTC
MEAN_ELEMENT_THEORY = SGP/SGP4

EPOCH          = 2025-12-02T20:00:03.000384
MEAN_MOTION    = 15.66011231
ECCENTRICITY   = .0001191
INCLINATION    = 53.1595
RA_OF_ASC_NODE = 324.1878
ARG_OF_PERICENTER = 106.3457
MEAN_ANOMALY   = 147.6227

EPHEMERIS_TYPE = 0
CLASSIFICATION_TYPE = U
NORAD_CAT_ID   = 66350
ELEMENT_SET_NO = 999
REV_AT_EPOCH   = 533
BSTAR          = -.21888E-1
MEAN_MOTION_DOT = -.2006517E-1
MEAN_MOTION_DDOT = 0

