STARLINK-35443          
1 66339U 25253W   25336.83336806 -.02065814  00000+0 -47182-1 0  9990
2 66339  43.0004  42.5872 0001476 287.8045 153.7556 15.45597965  5384
STARLINK-35218          
1 66340U 25253X   25336.23932528  .00130561  00000+0  21881-2 0  9996
2 66340  43.0002  46.0659 0001723 259.1035 100.9632 15.50658934  5303
STARLINK-35522          
1 66341U 25253Y   25336.24069729  .00085041  00000+0  14366-2 0  9994
2 66341  43.0002  46.0790 0001588 262.4563  97.6117 15.50639914  5309
STARLINK-35535          
1 66342U 25253Z   25336.83336806  .00025388  00000+0  61374-3 0  9993
2 66342  43.0006  42.6849 0001483 280.6357 120.7303 15.40663767  5338
STARLINK-35467          
1 66343U 25253AA  25336.83336806  .00021300  00000+0  51619-3 0  9995
2 66343  43.0008  42.7751 0001196 264.2131  99.8075 15.40672905  5339
STARLINK-35511          
1 66344U 25253AB  25336.49389799  .00108013  00000+0  18155-2 0  9991
2 66344  43.0006  44.5324 0001213 250.7153 109.3576 15.50673828  5348
STARLINK-35440          
1 66345U 25253AC  25336.55899738  .00171149  00000+0  28551-2 0  9999
2 66345  43.0000  44.1598 0002377 275.8194  84.2395 15.50624658  5355
STARLINK-35482          
1 66346U 25253AD  25336.55865762  .00100677  00000+0  16987-2 0  9998
2 66346  43.0008  44.1578 0001487 277.7490  82.3202 15.50598874  5359
STARLINK-35438          
1 66347U 25253AE  25336.49355517  .00139273  00000+0  23230-2 0  9997
2 66347  43.0001  44.5284 0005169 271.7306  88.2962 15.50748022  5341
STARLINK-35849          
1 66348U 25254A   25336.83336806 -.02012148  00000+0 -21956-1 0  9994
2 66348  53.1594 324.1966 0001211 105.3455 144.7903 15.66013771  5331
STARLINK-35848          
1 66349U 25254B   25336.83336806 -.02008861  00000+0 -21916-1 0  9998
2 66349  53.1593 324.1921 0001205 105.1960 146.8559 15.66012330  5334
STARLINK-35829          
1 66350U 25254C   25336.83336806 -.02006517  00000+0 -21888-1 0  9994
2 66350  53.1595 324.1878 0001191 106.3457 147.6227 15.66011231  5337
